[{"OBJECT_NAME":"QIANFAN-35","OBJECT_ID":"2024-185S","EPOCH":"2026-03-06T20:27:08.231904","MEAN_MOTION":14.28121831,"ECCENTRICITY":0.0007333,"INCLINATION":88.9746,"RA_OF_ASC_NODE":66.986,"ARG_OF_PERICENTER":28.721,"MEAN_ANOMALY":331.4387,"EPHEMERIS_TYPE":0,"CLASSIFICATION_TYPE":"U","NORAD_CAT_ID":61568,"ELEMENT_SET_NO":999,"REV_AT_EPOCH":8218,"BSTAR":0.00046724,"MEAN_MOTION_DOT":1.176e-5,"MEAN_MOTION_DDOT":0},{"OBJECT_NAME":"QIANFAN-36","OBJECT_ID":"2024-185T","EPOCH":"2026-03-06T19:31:30.619776","MEAN_MOTION":13.55614016,"ECCENTRICITY":0.0007093,"INCLINATION":88.9718,"RA_OF_ASC_NODE":72.2696,"ARG_OF_PERICENTER":143.3437,"MEAN_ANOMALY":216.8203,"EPHEMERIS_TYPE":0,"CLASSIFICATION_TYPE":"U","NORAD_CAT_ID":61569,"ELEMENT_SET_NO":999,"REV_AT_EPOCH":7931,"BSTAR":0.00016545,"MEAN_MOTION_DOT":1.27e-6,"MEAN_MOTION_DDOT":0},{"OBJECT_NAME":"QIANFAN-37","OBJECT_ID":"2024-232B","EPOCH":"2026-03-06T19:59:17.243808","MEAN_MOTION":13.51005479,"ECCENTRICITY":0.0001751,"INCLINATION":89.0054,"RA_OF_ASC_NODE":32.8357,"ARG_OF_PERICENTER":97.3612,"MEAN_ANOMALY":262.7738,"EPHEMERIS_TYPE":0,"CLASSIFICATION_TYPE":"U","NORAD_CAT_ID":62238,"ELEMENT_SET_NO":999,"REV_AT_EPOCH":11052,"BSTAR":0.00010817,"MEAN_MOTION_DOT":8.2e-7,"MEAN_MOTION_DDOT":0},{"OBJECT_NAME":"QIANFAN-38","OBJECT_ID":"2024-232C","EPOCH":"2026-03-06T20:34:45.859008","MEAN_MOTION":13.51004077,"ECCENTRICITY":0.001331,"INCLINATION":89.0061,"RA_OF_ASC_NODE":32.7547,"ARG_OF_PERICENTER":319.5191,"MEAN_ANOMALY":40.4969,"EPHEMERIS_TYPE":0,"CLASSIFICATION_TYPE":"U","NORAD_CAT_ID":62239,"ELEMENT_SET_NO":999,"REV_AT_EPOCH":11058,"BSTAR":0.00012857,"MEAN_MOTION_DOT":9.5e-7,"MEAN_MOTION_DDOT":0},{"OBJECT_NAME":"QIANFAN-39","OBJECT_ID":"2024-232D","EPOCH":"2026-03-06T20:58:33.598272","MEAN_MOTION":14.25437724,"ECCENTRICITY":0.0016738,"INCLINATION":89.0059,"RA_OF_ASC_NODE":27.6848,"ARG_OF_PERICENTER":155.0362,"MEAN_ANOMALY":205.1644,"EPHEMERIS_TYPE":0,"CLASSIFICATION_TYPE":"U","NORAD_CAT_ID":62240,"ELEMENT_SET_NO":999,"REV_AT_EPOCH":11337,"BSTAR":0.00021862,"MEAN_MOTION_DOT":5.31e-6,"MEAN_MOTION_DDOT":0},{"OBJECT_NAME":"QIANFAN-40","OBJECT_ID":"2024-232E","EPOCH":"2026-03-06T21:22:09.802272","MEAN_MOTION":13.51003341,"ECCENTRICITY":0.0012616,"INCLINATION":89.009,"RA_OF_ASC_NODE":32.3595,"ARG_OF_PERICENTER":328.6108,"MEAN_ANOMALY":31.4289,"EPHEMERIS_TYPE":0,"CLASSIFICATION_TYPE":"U","NORAD_CAT_ID":62241,"ELEMENT_SET_NO":999,"REV_AT_EPOCH":11095,"BSTAR":0.00013813,"MEAN_MOTION_DOT":1.01e-6,"MEAN_MOTION_DDOT":0},{"OBJECT_NAME":"QIANFAN-41","OBJECT_ID":"2024-232F","EPOCH":"2026-03-06T21:34:04.331136","MEAN_MOTION":13.51004969,"ECCENTRICITY":0.0012613,"INCLINATION":89.006,"RA_OF_ASC_NODE":32.7007,"ARG_OF_PERICENTER":315.4388,"MEAN_ANOMALY":44.5748,"EPHEMERIS_TYPE":0,"CLASSIFICATION_TYPE":"U","NORAD_CAT_ID":62242,"ELEMENT_SET_NO":999,"REV_AT_EPOCH":11061,"BSTAR":0.00011755,"MEAN_MOTION_DOT":8.8e-7,"MEAN_MOTION_DDOT":0},{"OBJECT_NAME":"QIANFAN-42","OBJECT_ID":"2024-232G","EPOCH":"2026-03-06T20:31:37.695360","MEAN_MOTION":14.24531521,"ECCENTRICITY":0.0015349,"INCLINATION":89.0057,"RA_OF_ASC_NODE":27.7467,"ARG_OF_PERICENTER":160.4355,"MEAN_ANOMALY":199.7429,"EPHEMERIS_TYPE":0,"CLASSIFICATION_TYPE":"U","NORAD_CAT_ID":62243,"ELEMENT_SET_NO":999,"REV_AT_EPOCH":11334,"BSTAR":0.00021374,"MEAN_MOTION_DOT":5.11e-6,"MEAN_MOTION_DDOT":0},{"OBJECT_NAME":"QIANFAN-43","OBJECT_ID":"2024-232H","EPOCH":"2026-03-06T21:28:05.179296","MEAN_MOTION":13.51005007,"ECCENTRICITY":0.0014289,"INCLINATION":89.0064,"RA_OF_ASC_NODE":32.7701,"ARG_OF_PERICENTER":320.3348,"MEAN_ANOMALY":39.6757,"EPHEMERIS_TYPE":0,"CLASSIFICATION_TYPE":"U","NORAD_CAT_ID":62244,"ELEMENT_SET_NO":999,"REV_AT_EPOCH":7922,"BSTAR":0.00012471,"MEAN_MOTION_DOT":9.2e-7,"MEAN_MOTION_DDOT":0},{"OBJECT_NAME":"QIANFAN-44","OBJECT_ID":"2024-232J","EPOCH":"2026-03-06T21:10:19.655616","MEAN_MOTION":13.51002905,"ECCENTRICITY":0.0012422,"INCLINATION":89.0062,"RA_OF_ASC_NODE":32.5807,"ARG_OF_PERICENTER":318.1059,"MEAN_ANOMALY":41.914,"EPHEMERIS_TYPE":0,"CLASSIFICATION_TYPE":"U","NORAD_CAT_ID":62245,"ELEMENT_SET_NO":999,"REV_AT_EPOCH":11069,"BSTAR":0.00011072,"MEAN_MOTION_DOT":8.3e-7,"MEAN_MOTION_DDOT":0},{"OBJECT_NAME":"QIANFAN-45","OBJECT_ID":"2024-232K","EPOCH":"2026-03-06T20:22:58.249920","MEAN_MOTION":13.5100058,"ECCENTRICITY":0.0013063,"INCLINATION":89.0066,"RA_OF_ASC_NODE":32.7335,"ARG_OF_PERICENTER":317.4185,"MEAN_ANOMALY":42.5953,"EPHEMERIS_TYPE":0,"CLASSIFICATION_TYPE":"U","NORAD_CAT_ID":62246,"ELEMENT_SET_NO":999,"REV_AT_EPOCH":11061,"BSTAR":0.00011765,"MEAN_MOTION_DOT":8.8e-7,"MEAN_MOTION_DDOT":0},{"OBJECT_NAME":"QIANFAN-46","OBJECT_ID":"2024-232L","EPOCH":"2026-03-06T20:58:27.342912","MEAN_MOTION":13.5100356,"ECCENTRICITY":0.0013299,"INCLINATION":89.0062,"RA_OF_ASC_NODE":32.7966,"ARG_OF_PERICENTER":323.3115,"MEAN_ANOMALY":36.7125,"EPHEMERIS_TYPE":0,"CLASSIFICATION_TYPE":"U","NORAD_CAT_ID":62247,"ELEMENT_SET_NO":999,"REV_AT_EPOCH":11057,"BSTAR":0.00011717,"MEAN_MOTION_DOT":8.8e-7,"MEAN_MOTION_DDOT":0},{"OBJECT_NAME":"QIANFAN-47","OBJECT_ID":"2024-232M","EPOCH":"2026-03-06T21:04:22.605024","MEAN_MOTION":13.51003421,"ECCENTRICITY":0.0013689,"INCLINATION":89.0058,"RA_OF_ASC_NODE":32.7258,"ARG_OF_PERICENTER":322.1529,"MEAN_ANOMALY":37.8658,"EPHEMERIS_TYPE":0,"CLASSIFICATION_TYPE":"U","NORAD_CAT_ID":62248,"ELEMENT_SET_NO":999,"REV_AT_EPOCH":11060,"BSTAR":0.00010506,"MEAN_MOTION_DOT":8.0e-7,"MEAN_MOTION_DDOT":0},{"OBJECT_NAME":"QIANFAN-48","OBJECT_ID":"2024-232N","EPOCH":"2026-03-06T20:11:03.734880","MEAN_MOTION":13.51003581,"ECCENTRICITY":0.0016022,"INCLINATION":89.0061,"RA_OF_ASC_NODE":32.7347,"ARG_OF_PERICENTER":324.0428,"MEAN_ANOMALY":35.9644,"EPHEMERIS_TYPE":0,"CLASSIFICATION_TYPE":"U","NORAD_CAT_ID":62249,"ELEMENT_SET_NO":999,"REV_AT_EPOCH":11060,"BSTAR":0.00010903,"MEAN_MOTION_DOT":8.2e-7,"MEAN_MOTION_DDOT":0},{"OBJECT_NAME":"QIANFAN-49","OBJECT_ID":"2024-232P","EPOCH":"2026-03-06T21:39:56.740320","MEAN_MOTION":13.51002744,"ECCENTRICITY":0.0012936,"INCLINATION":89.0061,"RA_OF_ASC_NODE":32.7403,"ARG_OF_PERICENTER":319.4176,"MEAN_ANOMALY":40.601,"EPHEMERIS_TYPE":0,"CLASSIFICATION_TYPE":"U","NORAD_CAT_ID":62250,"ELEMENT_SET_NO":999,"REV_AT_EPOCH":7920,"BSTAR":0.00011676,"MEAN_MOTION_DOT":8.7e-7,"MEAN_MOTION_DDOT":0},{"OBJECT_NAME":"QIANFAN-50","OBJECT_ID":"2024-232Q","EPOCH":"2026-03-06T20:28:49.548000","MEAN_MOTION":13.51003677,"ECCENTRICITY":0.0014632,"INCLINATION":89.0066,"RA_OF_ASC_NODE":32.758,"ARG_OF_PERICENTER":320.2202,"MEAN_ANOMALY":39.7875,"EPHEMERIS_TYPE":0,"CLASSIFICATION_TYPE":"U","NORAD_CAT_ID":62251,"ELEMENT_SET_NO":999,"REV_AT_EPOCH":7922,"BSTAR":0.00012848,"MEAN_MOTION_DOT":9.5e-7,"MEAN_MOTION_DDOT":0},{"OBJECT_NAME":"QIANFAN-51","OBJECT_ID":"2024-232R","EPOCH":"2026-03-06T20:05:10.256928","MEAN_MOTION":13.51004474,"ECCENTRICITY":0.0012264,"INCLINATION":89.006,"RA_OF_ASC_NODE":32.7483,"ARG_OF_PERICENTER":325.5752,"MEAN_ANOMALY":34.4604,"EPHEMERIS_TYPE":0,"CLASSIFICATION_TYPE":"U","NORAD_CAT_ID":62252,"ELEMENT_SET_NO":999,"REV_AT_EPOCH":7921,"BSTAR":0.00011426,"MEAN_MOTION_DOT":8.6e-7,"MEAN_MOTION_DDOT":0}]
