QIANFAN-35              
1 61568U 24185S   26065.85217861  .00001176  00000+0  46724-3 0  9993
2 61568  88.9746  66.9860 0007333  28.7210 331.4387 14.28121831 82180
QIANFAN-36              
1 61569U 24185T   26065.81354884  .00000127  00000+0  16545-3 0  9990
2 61569  88.9718  72.2696 0007093 143.3437 216.8203 13.55614016 79310
QIANFAN-37              
1 62238U 24232B   26065.83283847  .00000082  00000+0  10817-3 0  9995
2 62238  89.0054  32.8357 0001751  97.3612 262.7738 13.51005479110528
QIANFAN-38              
1 62239U 24232C   26065.85747522  .00000095  00000+0  12857-3 0  9993
2 62239  89.0061  32.7547 0013310 319.5191  40.4969 13.51004077110588
QIANFAN-39              
1 62240U 24232D   26065.87399998  .00000531  00000+0  21862-3 0  9998
2 62240  89.0059  27.6848 0016738 155.0362 205.1644 14.25437724113375
QIANFAN-40              
1 62241U 24232E   26065.89039123  .00000101  00000+0  13813-3 0  9992
2 62241  89.0090  32.3595 0012616 328.6108  31.4289 13.51003341110958
QIANFAN-41              
1 62242U 24232F   26065.89866124  .00000088  00000+0  11755-3 0  9999
2 62242  89.0060  32.7007 0012613 315.4388  44.5748 13.51004969110614
QIANFAN-42              
1 62243U 24232G   26065.85529740  .00000511  00000+0  21374-3 0  9995
2 62243  89.0057  27.7467 0015349 160.4355 199.7429 14.24531521113348
QIANFAN-43              
1 62244U 24232H   26065.89450439  .00000092  00000+0  12471-3 0  9990
2 62244  89.0064  32.7701 0014289 320.3348  39.6757 13.51005007 79223
QIANFAN-44              
1 62245U 24232J   26065.88217194  .00000083  00000+0  11072-3 0  9995
2 62245  89.0062  32.5807 0012422 318.1059  41.9140 13.51002905110691
QIANFAN-45              
1 62246U 24232K   26065.84928530  .00000088  00000+0  11765-3 0  9999
2 62246  89.0066  32.7335 0013063 317.4185  42.5953 13.51000580110616
QIANFAN-46              
1 62247U 24232L   26065.87392758  .00000088  00000+0  11717-3 0  9997
2 62247  89.0062  32.7966 0013299 323.3115  36.7125 13.51003560110575
QIANFAN-47              
1 62248U 24232M   26065.87803941  .00000080  00000+0  10506-3 0  9996
2 62248  89.0058  32.7258 0013689 322.1529  37.8658 13.51003421110607
QIANFAN-48              
1 62249U 24232N   26065.84101545  .00000082  00000+0  10903-3 0  9998
2 62249  89.0061  32.7347 0016022 324.0428  35.9644 13.51003581110605
QIANFAN-49              
1 62250U 24232P   26065.90274005  .00000087  00000+0  11676-3 0  9992
2 62250  89.0061  32.7403 0012936 319.4176  40.6010 13.51002744 79208
QIANFAN-50              
1 62251U 24232Q   26065.85335125  .00000095  00000+0  12848-3 0  9999
2 62251  89.0066  32.7580 0014632 320.2202  39.7875 13.51003677 79221
QIANFAN-51              
1 62252U 24232R   26065.83692427  .00000086  00000+0  11426-3 0  9990
2 62252  89.0060  32.7483 0012264 325.5752  34.4604 13.51004474 79212
